{
  "norad_id": 59371,
  "name": "RESURS-P 4",
  "history": [
    {
      "epoch": "2026-03-28T22:28:01.492896Z",
      "apogee_km": 467.31775819977065,
      "perigee_km": 465.8807742680374,
      "latitude_deg": -1.792590317300394e-05,
      "longitude_deg": -126.09824431193748,
      "height_km": 469.34622085641087,
      "semi_major_axis_km": 6844.736266233904,
      "eccentricity": 0.00010497,
      "inclination_deg": 97.2677,
      "raan_deg": 37.2574,
      "arg_perigee_deg": 59.6008,
      "mean_anomaly_deg": 300.5338,
      "mean_motion_rev_day": 15.33090115
    },
    {
      "epoch": "2026-03-29T04:43:58.812672Z",
      "apogee_km": 467.3038733960284,
      "perigee_km": 465.88016975953906,
      "latitude_deg": -4.521776351568967e-05,
      "longitude_deg": 139.91219454551162,
      "height_km": 469.3446982891984,
      "semi_major_axis_km": 6844.729021577783,
      "eccentricity": 0.000104,
      "inclination_deg": 97.2678,
      "raan_deg": 37.514,
      "arg_perigee_deg": 59.8195,
      "mean_anomaly_deg": 300.315,
      "mean_motion_rev_day": 15.33092549
    },
    {
      "epoch": "2026-03-30T04:13:48.340416Z",
      "apogee_km": 467.2301175946395,
      "perigee_km": 465.88718830752987,
      "latitude_deg": 9.26011274876905e-06,
      "longitude_deg": 147.45303140833573,
      "height_km": 469.36785759326875,
      "semi_major_axis_km": 6844.695652951084,
      "eccentricity": 9.81e-05,
      "inclination_deg": 97.268,
      "raan_deg": 38.4762,
      "arg_perigee_deg": 63.3299,
      "mean_anomaly_deg": 296.8044,
      "mean_motion_rev_day": 15.3310376
    }
  ]
}